IRIDIUM 119             
1 42959U 17061E   25293.61137364 -.00000044  00000+0 -22804-4 0  9995
2 42959  86.3945 125.4288 0002243  85.8679 274.2774 14.34217694420471
IRIDIUM 107             
1 42960U 17061F   25293.49086406  .00000131  00000+0  39662-4 0  9998
2 42960  86.3942 125.4993 0002300  76.6144 283.5309 14.34218430420467
IRIDIUM 132             
1 42961U 17061G   25293.63674261  .00000145  00000+0  44588-4 0  9995
2 42961  86.3941 125.4194 0002100  84.2076 275.9359 14.34218831420484
IRIDIUM 136             
1 42962U 17061H   25293.59868805 -.00000028  00000+0 -17187-4 0  9997
2 42962  86.3945 125.4406 0002125  84.8291 275.3147 14.34217714420496
IRIDIUM 139             
1 42963U 17061J   25293.60503034 -.00000022  00000+0 -15050-4 0  9991
2 42963  86.3947 125.4961 0001962  79.9202 280.2215 14.34217694420500
IRIDIUM 125             
1 42964U 17061K   25293.59234662  .00000122  00000+0  36405-4 0  9994
2 42964  86.3944 125.5581 0002560  79.5534 280.5950 14.34218515420519
IRIDIUM 135             
1 43070U 17083A   25293.63623530  .00000552  00000+0  19017-3 0  9994
2 43070  86.3957  62.1388 0001914  96.9829 263.1585 14.34221938409819
IRIDIUM 138             
1 43071U 17083B   25293.59184012  .00000419  00000+0  14263-3 0  9997
2 43071  86.3971  61.8155 0002499  94.6517 265.4965 14.34218116409790
